NORAD_CAT_ID,OBJECT_NAME,OBJECT_TYPE,EPOCH,MEAN_MOTION,ECCENTRICITY,INCLINATION,RA_OF_ASC_NODE,ARG_OF_PERICENTER,MEAN_ANOMALY,BSTAR,MEAN_MOTION_DOT,MEAN_MOTION_DDOT,TLE_LINE0,TLE_LINE1,TLE_LINE2,SEMIMAJOR_AXIS,PERIOD,APOGEE,PERIGEE,DECAYED
56802.0,STARLINK-6070,PAYLOAD,2023-12-27 13:40:15,14.99305282,0.0002784,69.9993,189.4215,268.9162,91.1679,-3.2739e-05,-4.94e-06,0.0,0 STARLINK-6070,1 56802U 23078AM  23361.56962642 -.00000494  00000-0 -32739-4 0  9993,2 56802  69.9993 189.4215 0002784 268.9162  91.1679 14.99305282 32879,6947.179,96.044,570.978,567.109,0.0
56802.0,STARLINK-6070,PAYLOAD,2023-12-27 20:04:33,14.99304159,0.0002815,69.9993,188.7477,266.5065,93.5773,-4.5129e-05,-6.46e-06,0.0,0 STARLINK-6070,1 56802U 23078AM  23361.83649347 -.00000646  00000-0 -45129-4 0  9993,2 56802  69.9993 188.7477 0002815 266.5065  93.5773 14.99304159 33179,6947.182,96.045,571.003,567.091,0.0
56802.0,STARLINK-6070,PAYLOAD,2023-12-27 21:40:37,14.99303982,0.0002813,69.9992,188.5792,266.3777,93.7061,-4.6439e-05,-6.62e-06,0.0,0 STARLINK-6070,1 56802U 23078AM  23361.90321019 -.00000662  00000-0 -46439-4 0  9997,2 56802  69.9992 188.5792 0002813 266.3777  93.7061 14.99303982 32929,6947.183,96.045,571.002,567.093,0.0
56802.0,STARLINK-6070,PAYLOAD,2023-12-28 13:41:20,14.99305664,0.0002816,69.9994,186.8946,264.5769,95.5069,-4.6276e-05,-6.6e-06,0.0,0 STARLINK-6070,1 56802U 23078AM  23362.57037455 -.00000660  00000-0 -46276-4 0  9996,2 56802  69.9994 186.8946 0002816 264.5769  95.5069 14.99305664 33026,6947.177,96.044,570.999,567.086,0.0
56802.0,STARLINK-6070,PAYLOAD,2023-12-28 20:05:37,14.99304464,0.0002841,69.9994,186.2208,263.78,96.3036,-5.5104e-05,-7.68e-06,0.0,0 STARLINK-6070,1 56802U 23078AM  23362.83724181 -.00000768  00000-0 -55104-4 0  9993,2 56802  69.9994 186.2208 0002841 263.7800  96.3036 14.99304464 33060,6947.181,96.045,571.02,567.072,0.0
56802.0,STARLINK-6070,PAYLOAD,2023-12-29 12:06:22,14.99288047,0.0002022,70.0026,184.5377,258.6424,101.4508,-0.0001737,-2.218e-05,0.0,0 STARLINK-6070,1 56802U 23078AM  23363.50442921 -.00002218  00000-0 -17370-3 0  9991,2 56802  70.0026 184.5377 0002022 258.6424 101.4508 14.99288047 33423,6947.232,96.046,570.502,567.692,0.0
56802.0,STARLINK-6070,PAYLOAD,2023-12-29 13:42:26,14.9928495,0.0002176,70.001,184.3693,246.7241,113.3689,-9.8223e-05,-1.295e-05,0.0,0 STARLINK-6070,1 56802U 23078AM  23363.57114500 -.00001295  00000-0 -98223-4 0  9998,2 56802  70.0010 184.3693 0002176 246.7241 113.3689 14.99284950 33173,6947.241,96.046,570.618,567.595,0.0
56802.0,STARLINK-6070,PAYLOAD,2023-12-29 21:42:48,14.99289146,0.0002467,69.9998,183.5255,263.7317,96.3562,-7.5565e-05,-1.018e-05,0.0,0 STARLINK-6070,1 56802U 23078AM  23363.90472876 -.00001018  00000-0 -75565-4 0  9995,2 56802  69.9998 183.5255 0002467 263.7317  96.3562 14.99289146 33224,6947.228,96.046,570.807,567.38,0.0
56802.0,STARLINK-6070,PAYLOAD,2023-12-30 12:07:27,14.99294605,0.0002667,69.9995,182.009,270.8793,89.206,-1.189e-05,-2.39e-06,0.0,0 STARLINK-6070,1 56802U 23078AM  23364.50517802 -.00000239  00000-0 -11890-4 0  9996,2 56802  69.9995 182.0090 0002667 270.8793  89.2060 14.99294605 33579,6947.212,96.045,570.929,567.224,0.0
56802.0,STARLINK-6070,PAYLOAD,2023-12-30 13:43:31,14.99294012,0.0002612,69.9994,181.8405,269.092,90.994,-1.2939e-05,-2.52e-06,0.0,0 STARLINK-6070,1 56802U 23078AM  23364.57189542 -.00000252  00000-0 -12939-4 0  9999,2 56802  69.9994 181.8405 0002612 269.0920  90.9940 14.99294012 33328,6947.213,96.045,570.893,567.264,0.0
56802.0,STARLINK-6070,PAYLOAD,2023-12-30 21:43:53,14.99293294,0.0002594,69.9994,180.998,269.1726,90.9136,-1.5918e-05,-2.89e-06,0.0,0 STARLINK-6070,1 56802U 23078AM  23364.90548182 -.00000289  00000-0 -15918-4 0  9995,2 56802  69.9994 180.9980 0002594 269.1726  90.9136 14.99293294 33373,6947.216,96.045,570.883,567.278,0.0
56802.0,STARLINK-6070,PAYLOAD,2023-12-31 12:08:32,14.99294151,0.0002839,69.9988,179.4815,279.7457,80.3382,4.8754e-05,5.03e-06,0.0,0 STARLINK-6070,1 56802U 23078AM  23365.50593584  .00000503  00000-0  48754-4 0  9999,2 56802  69.9988 179.4815 0002839 279.7457  80.3382 14.99294151 33724,6947.213,96.045,571.05,567.106,0.0
56802.0,STARLINK-6070,PAYLOAD,2023-12-31 21:44:58,14.99296854,0.0002801,69.9989,178.4708,279.1392,80.945,7.3343e-05,8.04e-06,0.0,0 STARLINK-6070,1 56802U 23078AM  23365.90623552  .00000804  00000-0  73343-4 0  9998,2 56802  69.9989 178.4708 0002801 279.1392  80.9450 14.99296854 33528,6947.205,96.045,571.015,567.124,0.0
56802.0,STARLINK-6070,PAYLOAD,2024-01-01 12:09:37,14.99301554,0.0002855,69.9988,176.9545,279.8098,80.2739,5.0238e-05,5.21e-06,0.0,0 STARLINK-6070,1 56802U 23078AM  24001.50668507  .00000521  00000-0  50238-4 0  9995,2 56802  69.9988 176.9545 0002855 279.8098  80.2739 14.99301554 33873,6947.19,96.045,571.038,567.072,0.0
56802.0,STARLINK-6070,PAYLOAD,2024-01-01 13:45:41,14.99301561,0.000286,69.9988,176.7861,279.7894,80.2942,4.8939e-05,5.05e-06,0.0,0 STARLINK-6070,1 56802U 23078AM  24001.57340182  .00000505  00000-0  48939-4 0  9995,2 56802  69.9988 176.7861 0002860 279.7894  80.2942 14.99301561 33628,6947.19,96.045,571.042,567.068,0.0
56802.0,STARLINK-6070,PAYLOAD,2024-01-01 21:46:03,14.99303967,0.0002831,69.9988,175.9436,279.8112,80.2727,7.2684e-05,7.96e-06,0.0,0 STARLINK-6070,1 56802U 23078AM  24001.90698310  .00000796  00000-0  72684-4 0  9997,2 56802  69.9988 175.9436 0002831 279.8112  80.2727 14.99303967 33677,6947.183,96.045,571.014,567.081,0.0
56802.0,STARLINK-6070,PAYLOAD,2024-01-02 12:10:41,14.99308795,0.0002906,69.9987,174.4271,281.3095,78.7738,7.5785e-05,8.34e-06,0.0,0 STARLINK-6070,1 56802U 23078AM  24002.50742877  .00000834  00000-0  75785-4 0  9990,2 56802  69.9987 174.4271 0002906 281.3095  78.7738 14.99308795 34026,6947.168,96.044,571.052,567.014,0.0
56802.0,STARLINK-6070,PAYLOAD,2024-01-02 13:46:46,14.99308956,0.0002908,69.9987,174.2586,281.5206,78.5627,7.6199e-05,8.39e-06,0.0,0 STARLINK-6070,1 56802U 23078AM  24002.57414508  .00000839  00000-0  76199-4 0  9999,2 56802  69.9987 174.2586 0002908 281.5206  78.5627 14.99308956 33776,6947.167,96.044,571.052,567.012,0.0
56802.0,STARLINK-6070,PAYLOAD,2024-01-02 20:11:03,14.99311333,0.0002851,69.9988,173.585,280.3446,79.7392,9.8083e-05,1.107e-05,0.0,0 STARLINK-6070,1 56802U 23078AM  24002.84100838  .00001107  00000-0  98083-4 0  9992,2 56802  69.9988 173.5850 0002851 280.3446  79.7392 14.99311333 33813,6947.16,96.044,571.005,567.044,0.0
56802.0,STARLINK-6070,PAYLOAD,2024-01-03 12:11:45,14.99314485,0.0002902,69.9987,171.9002,281.8264,78.257,5.2098e-05,5.44e-06,0.0,0 STARLINK-6070,1 56802U 23078AM  24003.50817015  .00000544  00000-0  52098-4 0  9998,2 56802  69.9987 171.9002 0002902 281.8264  78.2570 14.99314485 34177,6947.15,96.044,571.031,566.999,0.0
56802.0,STARLINK-6070,PAYLOAD,2024-01-03 13:47:50,14.99313762,0.0002904,69.9986,171.732,280.4384,79.6448,3.9791e-05,3.93e-06,0.0,0 STARLINK-6070,1 56802U 23078AM  24003.57488699  .00000393  00000-0  39791-4 0  9994,2 56802  69.9986 171.7320 0002904 280.4384  79.6448 14.99313762 33925,6947.152,96.044,571.035,567.0,0.0
56802.0,STARLINK-6070,PAYLOAD,2024-01-03 20:12:24,14.99105489,0.0002918,69.9987,171.0585,317.432,42.6613,-0.0021577,-0.00026264,0.0,0 STARLINK-6070,1 56802U 23078AM  24003.84195369 -.00026264  00000-0 -21577-2 0  9991,2 56802  69.9987 171.0585 0002918 317.4320  42.6613 14.99105489 34221,6947.796,96.057,571.688,567.633,0.0
56802.0,STARLINK-6070,PAYLOAD,2024-01-04 02:37:01,14.989007,0.0002836,69.9988,170.3855,282.2271,77.8571,-0.0042033,-0.00050628,0.0,0 STARLINK-6070,1 56802U 23078AM  24004.10904470 -.00050628  00000-0 -42033-2 0  9993,2 56802  69.9988 170.3855 0002836 282.2271  77.8571 14.98900700 34262,6948.429,96.07,572.264,568.323,0.0
56802.0,STARLINK-6070,PAYLOAD,2024-01-04 09:01:35,14.98764694,0.0002773,69.9989,169.7126,268.6157,91.4685,-0.0053904,-0.00064543,0.0,0 STARLINK-6070,1 56802U 23078AM  24004.37609980 -.00064543  00000-0 -53904-2 0  9990,2 56802  69.9989 169.7126 0002773 268.6157  91.4685 14.98764694 34300,6948.849,96.079,572.641,568.787,0.0
56802.0,STARLINK-6070,PAYLOAD,2024-01-04 20:14:21,14.98715214,0.0003067,69.9989,168.535,276.5235,83.5575,-0.0052814,-0.00063173,0.0,0 STARLINK-6070,1 56802U 23078AM  24004.84330656 -.00063173  00000-0 -52814-2 0  9990,2 56802  69.9989 168.5350 0003067 276.5235  83.5575 14.98715214 34379,6949.002,96.082,572.998,568.736,0.0
56802.0,STARLINK-6070,PAYLOAD,2024-01-04 21:48:27,15.00252071,0.0006683,70.0024,168.3671,320.6024,39.4649,0.011397,0.00145901,0.0,0 STARLINK-6070,1 56802U 23078AM  24004.90865124  .00145901  00000-0  11397-1 0  9998,2 56802  70.0024 168.3671 0006683 320.6024  39.4649 15.00252071 34126,6944.255,95.984,570.761,561.48,0.0
56802.0,STARLINK-6070,PAYLOAD,2024-01-05 06:00:00,14.98303026,0.0002939,70.0002,167.507,271.9279,122.1687,0.0043084,0.00051659,0.0,0 STARLINK-6070,1 56802U 23078AM  24005.25001157  .00051659  00000-0  43084-2 0  9990,2 56802  70.0002 167.5070 0002939 271.9279 122.1687 14.98303026 34435,6950.276,96.109,574.184,570.099,0.0
56802.0,STARLINK-6070,PAYLOAD,2024-01-05 14:00:01,14.98435882,0.0002991,70.0003,166.6665,275.2574,116.375,-0.0076721,-0.00090709,0.0,0 STARLINK-6070,1 56802U 23078AM  24005.58334491 -.00090709  00000-0 -76721-2 0  9991,2 56802  70.0003 166.6665 0002991 275.2574 116.3750 14.98435882 34486,6949.865,96.1,573.809,569.652,0.0
56802.0,STARLINK-6070,PAYLOAD,2024-01-05 22:00:00,14.98341918,0.0003102,70.0,165.8258,277.0079,112.2075,-0.0043411,-0.00051528,0.0,0 STARLINK-6070,1 56802U 23078AM  24005.91667824 -.00051528  00000-0 -43411-2 0  9993,2 56802  70.0000 165.8258 0003102 277.0079 112.2075 14.98341918  5835,6950.156,96.106,574.177,569.865,0.0
56802.0,STARLINK-6070,PAYLOAD,2024-01-06 14:00:01,14.98335119,0.0003184,70.0001,164.1451,270.5623,113.5715,-0.0035664,-0.00042397,0.0,0 STARLINK-6070,1 56802U 23078AM  24006.58334491 -.00042397  00000-0 -35664-2 0  9993,2 56802  70.0001 164.1451 0003184 270.5623 113.5715 14.98335119 34637,6950.177,96.107,574.255,569.829,0.0
